{
    "links": {
        "self": "http://www.neowsapp.com/rest/v1/neo/3739415?api_key=iIulBulltgU6a56xZRHN4H3l9WmuAYTsLGpBGhQ2"
    },
    "id": "3739415",
    "neo_reference_id": "3739415",
    "name": "(2016 AX65)",
    "designation": "2016 AX65",
    "nasa_jpl_url": "http://ssd.jpl.nasa.gov/sbdb.cgi?sstr=3739415",
    "absolute_magnitude_h": 23.4,
    "estimated_diameter": {
        "kilometers": {
            "estimated_diameter_min": 0.0555334912,
            "estimated_diameter_max": 0.1241766613
        },
        "meters": {
            "estimated_diameter_min": 55.5334911581,
            "estimated_diameter_max": 124.1766612574
        },
        "miles": {
            "estimated_diameter_min": 0.0345069009,
            "estimated_diameter_max": 0.0771597762
        },
        "feet": {
            "estimated_diameter_min": 182.1964991311,
            "estimated_diameter_max": 407.4037573197
        }
    },
    "is_potentially_hazardous_asteroid": false,
    "close_approach_data": [
        {
            "close_approach_date": "2003-07-27",
            "close_approach_date_full": "2003-Jul-27 05:52",
            "epoch_date_close_approach": 1059285120000,
            "relative_velocity": {
                "kilometers_per_second": "8.4573983325",
                "kilometers_per_hour": "30446.6339969254",
                "miles_per_hour": "18918.3543299229"
            },
            "miss_distance": {
                "astronomical": "0.0695686355",
                "lunar": "27.0621992095",
                "kilometers": "10407319.689606385",
                "miles": "6466808.585222713"
            },
            "orbiting_body": "Mars"
        },
        {
            "close_approach_date": "2003-12-23",
            "close_approach_date_full": "2003-Dec-23 02:02",
            "epoch_date_close_approach": 1072144920000,
            "relative_velocity": {
                "kilometers_per_second": "12.1829090703",
                "kilometers_per_hour": "43858.4726529623",
                "miles_per_hour": "27251.9492992809"
            },
            "miss_distance": {
                "astronomical": "0.3663021188",
                "lunar": "142.4915242132",
                "kilometers": "54798016.748966956",
                "miles": "34049908.6925617528"
            },
            "orbiting_body": "Earth"
        },
        {
            "close_approach_date": "2015-12-30",
            "close_approach_date_full": "2015-Dec-30 10:10",
            "epoch_date_close_approach": 1451470200000,
            "relative_velocity": {
                "kilometers_per_second": "8.4848741444",
                "kilometers_per_hour": "30545.5469198069",
                "miles_per_hour": "18979.8149735878"
            },
            "miss_distance": {
                "astronomical": "0.1961972225",
                "lunar": "76.3207195525",
                "kilometers": "29350686.585916075",
                "miles": "18237670.952448835"
            },
            "orbiting_body": "Earth"
        },
        {
            "close_approach_date": "2044-12-24",
            "close_approach_date_full": "2044-Dec-24 05:44",
            "epoch_date_close_approach": 2366171040000,
            "relative_velocity": {
                "kilometers_per_second": "10.7462265213",
                "kilometers_per_hour": "38686.4154767801",
                "miles_per_hour": "24038.2341055582"
            },
            "miss_distance": {
                "astronomical": "0.295415496",
                "lunar": "114.916627944",
                "kilometers": "44193528.96659352",
                "miles": "27460585.535569776"
            },
            "orbiting_body": "Earth"
        }
    ],
    "orbital_data": {
        "orbit_id": "5",
        "orbit_determination_date": "2017-04-06 08:29:18",
        "first_observation_date": "2016-01-09",
        "last_observation_date": "2016-01-30",
        "data_arc_in_days": 21,
        "observations_used": 16,
        "orbit_uncertainty": "7",
        "minimum_orbit_intersection": ".192236",
        "jupiter_tisserand_invariant": "4.628",
        "epoch_osculation": "2459000.5",
        "eccentricity": ".2304933148356903",
        "semi_major_axis": "1.428887272819948",
        "inclination": "14.75766588776634",
        "ascending_node_longitude": "120.2686237030695",
        "orbital_period": "623.871833820191",
        "perihelion_distance": "1.099538308781149",
        "perihelion_argument": "299.3550328436755",
        "aphelion_distance": "1.758236236858748",
        "perihelion_time": "2459219.477325224856",
        "mean_anomaly": "233.6409743035962",
        "mean_motion": ".5770415981045192",
        "equinox": "J2000",
        "orbit_class": {
            "orbit_class_type": "AMO",
            "orbit_class_description": "Near-Earth asteroid orbits similar to that of 1221 Amor",
            "orbit_class_range": "1.017 AU < q (perihelion) < 1.3 AU"
        }
    },
    "is_sentry_object": false
}